{"type": "FeatureCollection", "features": [{"type": "Feature", "properties": {"norad_id": 26766, "name": "INTELSAT 10 (IS-10)", "group": "intelsat", "lat": -7.679574682790504, "lon": -1.1649614156071642, "alt_km": 36114.47169795211, "timestamp": "2025-12-23T11:34:47.849002+00:00", "meta": {"OBJECT_NAME": "INTELSAT 10 (IS-10)", "OBJECT_ID": "2001-019A", "EPOCH": "2025-12-22T17:02:39.635808", "MEAN_MOTION": 0.99073291, "ECCENTRICITY": 0.00077896, "INCLINATION": 8.6516, "RA_OF_ASC_NODE": 61.0562, "ARG_OF_PERICENTER": 228.8792, "MEAN_ANOMALY": 153.0858, "EPHEMERIS_TYPE": 0, "CLASSIFICATION_TYPE": "U", "NORAD_CAT_ID": 26766, "ELEMENT_SET_NO": 999, "REV_AT_EPOCH": 4383, "BSTAR": 0, "MEAN_MOTION_DOT": -4.3e-07, "MEAN_MOTION_DDOT": 0}, "tle": {"line1": "1 26766U 01019A   25356.71018097 -.00000043  00000+0  00000+0 0  9998", "line2": "2 26766   8.6516  61.0562 0007789 228.8792 153.0858  0.99073291 43832"}}, "geometry": {"type": "Point", "coordinates": [-1.1649614156071642, -7.679574682790504]}}, {"type": "Feature", "properties": {"norad_id": 26900, "name": "INTELSAT 902 (IS-902)", "group": "intelsat", "lat": 3.4980867894190912, "lon": -144.10397364693858, "alt_km": 35774.017269068056, "timestamp": "2025-12-23T11:34:47.849023+00:00", "meta": {"OBJECT_NAME": "INTELSAT 902 (IS-902)", "OBJECT_ID": "2001-039A", "EPOCH": "2025-12-15T13:09:02.081664", "MEAN_MOTION": 1.0027087, "ECCENTRICITY": 0.00045028, "INCLINATION": 5.6536, "RA_OF_ASC_NODE": 74.0372, "ARG_OF_PERICENTER": 189.6359, "MEAN_ANOMALY": 327.9329, "EPHEMERIS_TYPE": 0, "CLASSIFICATION_TYPE": "U", "NORAD_CAT_ID": 26900, "ELEMENT_SET_NO": 999, "REV_AT_EPOCH": 8885, "BSTAR": 0, "MEAN_MOTION_DOT": -2.65e-06, "MEAN_MOTION_DDOT": 0}, "tle": {"line1": "1 26900U 01039A   25349.54794076 -.00000265  00000+0  00000+0 0  9997", "line2": "2 26900   5.6536  74.0372 0004502 189.6359 327.9329  1.00270870 88858"}}, "geometry": {"type": "Point", "coordinates": [-144.10397364693858, 3.4980867894190912]}}, {"type": "Feature", "properties": {"norad_id": 27380, "name": "INTELSAT 904 (IS-904)", "group": "intelsat", "lat": 1.8637504862731114, "lon": -125.44073551813204, "alt_km": 35784.0383714892, "timestamp": "2025-12-23T11:34:47.849037+00:00", "meta": {"OBJECT_NAME": "INTELSAT 904 (IS-904)", "OBJECT_ID": "2002-007A", "EPOCH": "2025-12-23T02:42:38.784096", "MEAN_MOTION": 1.00273733, "ECCENTRICITY": 0.0001831, "INCLINATION": 6.4789, "RA_OF_ASC_NODE": 71.3134, "ARG_OF_PERICENTER": 243.7563, "MEAN_ANOMALY": 146.0036, "EPHEMERIS_TYPE": 0, "CLASSIFICATION_TYPE": "U", "NORAD_CAT_ID": 27380, "ELEMENT_SET_NO": 999, "REV_AT_EPOCH": 5000, "BSTAR": 0, "MEAN_MOTION_DOT": -2.07e-06, "MEAN_MOTION_DDOT": 0}, "tle": {"line1": "1 27380U 02007A   25357.11294889 -.00000207  00000+0  00000+0 0  9991", "line2": "2 27380   6.4789  71.3134 0001831 243.7563 146.0036  1.00273733 50009"}}, "geometry": {"type": "Point", "coordinates": [-125.44073551813204, 1.8637504862731114]}}, {"type": "Feature", "properties": {"norad_id": 27426, "name": "DIRECTV 5 (TEMPO 1)", "group": "intelsat", "lat": 4.3515222056278615, "lon": 155.78519023361983, "alt_km": 35792.93669794808, "timestamp": "2025-12-23T11:34:47.849049+00:00", "meta": {"OBJECT_NAME": "DIRECTV 5 (TEMPO 1)", "OBJECT_ID": "2002-023A", "EPOCH": "2025-12-23T02:57:48.843072", "MEAN_MOTION": 1.00271746, "ECCENTRICITY": 0.0003216, "INCLINATION": 4.4269, "RA_OF_ASC_NODE": 77.5314, "ARG_OF_PERICENTER": 201.2889, "MEAN_ANOMALY": 107.4324, "EPHEMERIS_TYPE": 0, "CLASSIFICATION_TYPE": "U", "NORAD_CAT_ID": 27426, "ELEMENT_SET_NO": 999, "REV_AT_EPOCH": 8635, "BSTAR": 0, "MEAN_MOTION_DOT": -3.8e-07, "MEAN_MOTION_DDOT": 0}, "tle": {"line1": "1 27426U 02023A   25357.12348198 -.00000038  00000+0  00000+0 0  9996", "line2": "2 27426   4.4269  77.5314 0003216 201.2889 107.4324  1.00271746 86358"}}, "geometry": {"type": "Point", "coordinates": [155.78519023361983, 4.3515222056278615]}}, {"type": "Feature", "properties": {"norad_id": 27438, "name": "INTELSAT 905 (IS-905)", "group": "intelsat", "lat": 5.300694999411979, "lon": 128.59577669496923, "alt_km": 35794.73385096727, "timestamp": "2025-12-23T11:34:47.849060+00:00", "meta": {"OBJECT_NAME": "INTELSAT 905 (IS-905)", "OBJECT_ID": "2002-027A", "EPOCH": "2025-12-22T11:32:40.739712", "MEAN_MOTION": 1.00273062, "ECCENTRICITY": 0.00027239, "INCLINATION": 6.3084, "RA_OF_ASC_NODE": 71.9438, "ARG_OF_PERICENTER": 204.9148, "MEAN_ANOMALY": 210.3946, "EPHEMERIS_TYPE": 0, "CLASSIFICATION_TYPE": "U", "NORAD_CAT_ID": 27438, "ELEMENT_SET_NO": 999, "REV_AT_EPOCH": 4959, "BSTAR": 0, "MEAN_MOTION_DOT": 1.12e-06, "MEAN_MOTION_DDOT": 0}, "tle": {"line1": "1 27438U 02027A   25356.48102708  .00000112  00000+0  00000+0 0  9998", "line2": "2 27438   6.3084  71.9438 0002723 204.9148 210.3946  1.00273062 49594"}}, "geometry": {"type": "Point", "coordinates": [128.59577669496923, 5.300694999411979]}}, {"type": "Feature", "properties": {"norad_id": 27445, "name": "GALAXY 3C (G-3C)", "group": "intelsat", "lat": 3.2988279755775523, "lon": 171.11583013457127, "alt_km": 35780.956112184555, "timestamp": "2025-12-23T11:34:47.849072+00:00", "meta": {"OBJECT_NAME": "GALAXY 3C (G-3C)", "OBJECT_ID": "2002-030A", "EPOCH": "2025-12-23T04:07:46.865280", "MEAN_MOTION": 1.00271641, "ECCENTRICITY": 0.0001142, "INCLINATION": 3.2882, "RA_OF_ASC_NODE": 80.3953, "ARG_OF_PERICENTER": 82.9722, "MEAN_ANOMALY": 255.6879, "EPHEMERIS_TYPE": 0, "CLASSIFICATION_TYPE": "U", "NORAD_CAT_ID": 27445, "ELEMENT_SET_NO": 999, "REV_AT_EPOCH": 4472, "BSTAR": 0, "MEAN_MOTION_DOT": -1.33e-06, "MEAN_MOTION_DDOT": 0}, "tle": {"line1": "1 27445U 02030A   25357.17207020 -.00000133  00000+0  00000+0 0  9994", "line2": "2 27445   3.2882  80.3953 0001142  82.9722 255.6879  1.00271641 44724"}}, "geometry": {"type": "Point", "coordinates": [171.11583013457127, 3.2988279755775523]}}, {"type": "Feature", "properties": {"norad_id": 27513, "name": "INTELSAT 906 (IS-906)", "group": "intelsat", "lat": -5.193510393144003, "lon": -29.88911820129882, "alt_km": 35770.64485518009, "timestamp": "2025-12-23T11:34:47.849086+00:00", "meta": {"OBJECT_NAME": "INTELSAT 906 (IS-906)", "OBJECT_ID": "2002-041A", "EPOCH": "2025-12-22T20:19:05.827008", "MEAN_MOTION": 1.00273289, "ECCENTRICITY": 0.0006296, "INCLINATION": 5.3553, "RA_OF_ASC_NODE": 75.111, "ARG_OF_PERICENTER": 200.9924, "MEAN_ANOMALY": 184.4567, "EPHEMERIS_TYPE": 0, "CLASSIFICATION_TYPE": "U", "NORAD_CAT_ID": 27513, "ELEMENT_SET_NO": 999, "REV_AT_EPOCH": 8526, "BSTAR": 0, "MEAN_MOTION_DOT": 3.1e-07, "MEAN_MOTION_DDOT": 0}, "tle": {"line1": "1 27513U 02041A   25356.84659522  .00000031  00000+0  00000+0 0  9999", "line2": "2 27513   5.3553  75.1110 0006296 200.9924 184.4567  1.00273289 85263"}}, "geometry": {"type": "Point", "coordinates": [-29.88911820129882, -5.193510393144003]}}, {"type": "Feature", "properties": {"norad_id": 27954, "name": "GALAXY 13 (HORIZONS-1)", "group": "intelsat", "lat": 0.4993052689111333, "lon": 115.91865701834233, "alt_km": 35795.03497041749, "timestamp": "2025-12-23T11:34:47.849104+00:00", "meta": {"OBJECT_NAME": "GALAXY 13 (HORIZONS-1)", "OBJECT_ID": "2003-044A", "EPOCH": "2025-12-23T02:08:49.523712", "MEAN_MOTION": 1.00270963, "ECCENTRICITY": 0.0002354, "INCLINATION": 0.9634, "RA_OF_ASC_NODE": 86.334, "ARG_OF_PERICENTER": 181.8661, "MEAN_ANOMALY": 65.8611, "EPHEMERIS_TYPE": 0, "CLASSIFICATION_TYPE": "U", "NORAD_CAT_ID": 27954, "ELEMENT_SET_NO": 999, "REV_AT_EPOCH": 4480, "BSTAR": 0, "MEAN_MOTION_DOT": 1.53e-06, "MEAN_MOTION_DDOT": 0}, "tle": {"line1": "1 27954U 03044A   25357.08946208  .00000153  00000+0  00000+0 0  9994", "line2": "2 27954   0.9634  86.3340 0002354 181.8661  65.8611  1.00270963 44801"}}, "geometry": {"type": "Point", "coordinates": [115.91865701834233, 0.4993052689111333]}}, {"type": "Feature", "properties": {"norad_id": 28358, "name": "INTELSAT 10-02", "group": "intelsat", "lat": -0.020062183631800914, "lon": -94.99894575502299, "alt_km": 35782.46307371131, "timestamp": "2025-12-23T11:34:47.849128+00:00", "meta": {"OBJECT_NAME": "INTELSAT 10-02", "OBJECT_ID": "2004-022A", "EPOCH": "2025-12-23T02:51:22.947840", "MEAN_MOTION": 1.00272591, "ECCENTRICITY": 0.0001051, "INCLINATION": 0.0144, "RA_OF_ASC_NODE": 66.1532, "ARG_OF_PERICENTER": 239.4749, "MEAN_ANOMALY": 188.1743, "EPHEMERIS_TYPE": 0, "CLASSIFICATION_TYPE": "U", "NORAD_CAT_ID": 28358, "ELEMENT_SET_NO": 999, "REV_AT_EPOCH": 7879, "BSTAR": 0, "MEAN_MOTION_DOT": 1.1e-07, "MEAN_MOTION_DDOT": 0}, "tle": {"line1": "1 28358U 04022A   25357.11901560  .00000011  00000+0  00000+0 0  9999", "line2": "2 28358   0.0144  66.1532 0001051 239.4749 188.1743  1.00272591 78795"}}, "geometry": {"type": "Point", "coordinates": [-94.99894575502299, -0.020062183631800914]}}, {"type": "Feature", "properties": {"norad_id": 28626, "name": "XM-3 (RHYTHM)", "group": "intelsat", "lat": -0.19926069066660085, "lon": -30.818823767157614, "alt_km": 36153.154945346556, "timestamp": "2025-12-23T11:34:47.849140+00:00", "meta": {"OBJECT_NAME": "XM-3 (RHYTHM)", "OBJECT_ID": "2005-008A", "EPOCH": "2025-12-23T03:10:06.157344", "MEAN_MOTION": 0.98949891, "ECCENTRICITY": 0.0002062, "INCLINATION": 0.1999, "RA_OF_ASC_NODE": 82.0997, "ARG_OF_PERICENTER": 276.1233, "MEAN_ANOMALY": 206.125, "EPHEMERIS_TYPE": 0, "CLASSIFICATION_TYPE": "U", "NORAD_CAT_ID": 28626, "ELEMENT_SET_NO": 999, "REV_AT_EPOCH": 4085, "BSTAR": 0, "MEAN_MOTION_DOT": 9.8e-07, "MEAN_MOTION_DDOT": 0}, "tle": {"line1": "1 28626U 05008A   25357.13201571  .00000098  00000+0  00000+0 0  9994", "line2": "2 28626   0.1999  82.0997 0002062 276.1233 206.1250  0.98949891 40853"}}, "geometry": {"type": "Point", "coordinates": [-30.818823767157614, -0.19926069066660085]}}]}